92P/Sanguin,e,19.5063,181.3616,163.8139,5.342920,0.0798061,0.66086049,238.9227,05/19.0/2023,2000,g 12.0,6.0
# From NK 2707
93P/Lovas,e,12.2035,339.6163,74.8726,4.379113,0.1075536,0.61374737,243.8568,05/19.0/2023,2000,g  9.0,4.0
# From MPEC 2023-K53
94P/Russell,e,6.1876,70.8550,92.4170,3.509985,0.1498809,0.36550478,359.6893,05/19.0/2023,2000,g  9.0,6.0
# From MPC 75717
95P/Chiron,e,6.9177,209.3065,339.4072,13.71277,0.0194096,0.37629733,194.5757,05/19.0/2023,2000,g  6.5,2.0
# From MPEC 2023-K53
96P/Machholz,e,57.5048,93.9532,14.7487,3.030650,0.1868101,0.96158427,20.1597,05/19.0/2023,2000,g 13.0,4.8
# From MPEC 2022-C56
97P/Metcalf-Brewington,e,17.9517,184.0777,230.0318,4.763252,0.0948088,0.46025103,43.3499,05/19.0/2023,2000,g  5.5,6.0
# From MPEC 2021-W31
98P/Takamizawa,e,10.5629,114.6691,157.7782,3.792406,0.1334541,0.56224410,115.3812,05/19.0/2023,2000,g  9.0,8.0
# From MPEC 2023-K53
99P/Kowal,e,4.3398,28.1009,174.8030,6.100672,0.0654090,0.22870070,26.3336,05/19.0/2023,2000,g  4.5,6.0
# From MPEC 2022-QD9
100P/Hartley,e,25.5668,37.6873,181.9595,3.430877,0.1550945,0.41192260,43.5955,05/19.0/2023,2000,g  9.0,8.0
# From MPEC 2022-K19
101P/Chernykh,e,5.0503,116.1928,277.8018,5.810243,0.0703741,0.59638641,85.9788,05/19.0/2023,2000,g 10.0,4.8
# From MPEC 2022-C56
102P/Shoemaker,e,25.8782,339.3712,20.6636,3.816990,0.1321669,0.45700089,111.8635,05/19.0/2023,2000,g  6.5,8.0
# From MPEC 2023-K53
103P/Hartley,e,13.6103,219.7511,181.3034,3.474843,0.1521603,0.69377247,337.7055,05/19.0/2023,2000,g  8.5,8.0
# From MPEC 2023-G31
104P/Kowal,e,5.7029,207.2076,227.2514,3.208528,0.1714926,0.66568685,84.4251,05/19.0/2023,2000,g 16.0,4.0
# From MPC109147
105P/Singer Brewster,e,9.1684,192.3958,46.4122,3.469984,0.1524800,0.40883665,266.2272,05/19.0/2023,2000,g 11.5,6.0
# From MPEC 2022-GA9
106P/Schuster,e,19.5389,48.8658,353.7344,3.765880,0.1348666,0.59395736,86.0564,05/19.0/2023,2000,g 14.0,4.8
# From MPEC 2015-M77
107P/Wilson-Harrington,e,2.7990,266.7703,95.4530,2.624569,0.2318020,0.63162785,61.9720,05/19.0/2023,2000,g  9.0,4.0
# From MPEC 2022-P82
108P/Ciffreo,e,11.4373,50.2735,354.4906,3.741328,0.1361963,0.55610280,83.8631,05/19.0/2023,2000,g  8.0,12.0
# From  105, 420
109P/Swift-Tuttle,e,113.6728,139.2815,153.0846,26.20031,0.0073493,0.96260100,81.6622,05/19.0/2023,2000,g  4.0,6.0
# From MPEC 2023-K53
110P/Hartley,e,11.7049,287.5121,167.4728,3.603974,0.1440561,0.31875275,83.2018,05/19.0/2023,2000,g  1.0,12.0
# From MPC 75718
111P/Helin-Roman-Crockett,e,4.2258,89.7470,1.1411,4.151281,0.1165282,0.10691219,81.7181,05/19.0/2023,2000,g  5.0,8.0
# From MPEC 2021-S45
112P/Urata-Niijima,e,24.2130,31.8345,21.4757,3.524317,0.1489675,0.59062792,178.0355,05/19.0/2023,2000,g 14.0,6.0
# From MPEC 2023-HD1
113P/Spitaler,e,5.2891,306.6769,115.5593,3.692525,0.1389053,0.41988874,48.8180,05/19.0/2023,2000,g 14.9,4.0
# From MPEC 2023-A50
114P/Wiseman-Skiff,e,18.2917,271.0238,172.7476,3.542666,0.1478117,0.55554745,180.3834,05/19.0/2023,2000,g 11.5,6.0
# From MPEC 2023-J29
115P/Maury,e,11.6772,176.0091,120.9980,4.272122,0.1116191,0.51786709,114.3006,05/19.0/2023,2000,g 10.5,6.0
# From MPEC 2023-J29
116P/Wild,e,3.6034,20.9781,173.2543,3.489033,0.1512330,0.37037718,46.3069,05/19.0/2023,2000,g  2.5,10.0
# From MPEC 2023-J95
117P/Helin-Roman-Alu,e,8.7039,58.8308,223.0749,4.085005,0.1193755,0.25575411,37.5586,05/19.0/2023,2000,g  2.5,8.0
# From MPEC 2023-K53
118P/Shoemaker-Levy,e,10.0913,142.0969,314.8504,3.347133,0.1609513,0.45354521,28.2684,05/19.0/2023,2000,g 12.0,4.0
# From MPEC 2023-K53
119P/Parker-Hartley,e,7.3930,104.5699,322.0995,3.805386,0.1327719,0.38828917,37.1619,05/19.0/2023,2000,g  3.5,8.0
# From MPEC 2022-CN4
120P/Mueller,e,8.4889,358.6743,36.6955,3.966282,0.1247753,0.37486338,92.5048,05/19.0/2023,2000,g 12.0,4.0
# From MPEC 2023-D41
121P/Shoemaker-Holt,e,20.1648,94.1151,11.6526,4.583978,0.1004246,0.18623376,355.9127,05/19.0/2023,2000,g  6.5,8.0
# From MPC 75718
122P/de Vico,e,85.6889,79.6824,12.9901,17.62494,0.0133203,0.96236314,134.6867,05/19.0/2023,2000,g  7.5,5.2
# From MPEC 2021-F20
123P/West-Hartley,e,15.2874,45.8961,104.0833,3.880622,0.1289294,0.44428567,202.2897,05/19.0/2023,2000,g 12.2,4.0
# From MPEC 2022-YN2
124P/Mrkos,e,31.5579,0.1165,185.2550,3.368547,0.1594190,0.48848994,179.6755,05/19.0/2023,2000,g 13.5,2.8
# From MPEC 2022-YB4
125P/Spacewatch,e,9.9857,153.1522,87.1623,3.128482,0.1781163,0.51208552,307.7540,05/19.0/2023,2000,g 13.0,6.0
# From MPEC 2023-J95
126P/IRAS,e,45.8763,357.8715,356.5976,5.635230,0.0736778,0.69645916,356.5126,05/19.0/2023,2000,g  6.0,8.0
# From MPEC 2023-D41
127P/Holt-Olmstead,e,14.3012,13.6046,6.2674,3.452075,0.1536681,0.35945127,43.2741,05/19.0/2023,2000,g 11.0,6.0
# From MPC 89014
128P/Shoemaker-Holt,e,4.3704,214.3287,210.2929,4.487542,0.1036791,0.32203920,240.3178,05/19.0/2023,2000,g  8.5,4.0
# From MPEC 2023-HD1
129P/Shoemaker-Levy,e,3.4424,184.8611,307.4487,4.289515,0.1109409,0.08512481,18.8512,05/19.0/2023,2000,g 13.0,4.0
# From MPEC 2023-K53
130P/McNaught-Hughes,e,6.0632,70.1802,246.1077,3.382734,0.1584172,0.46107610,307.4332,05/19.0/2023,2000,g 10.0,6.0
# From MPC102101
131P/Mueller,e,7.3617,214.1483,179.0875,3.678305,0.1397116,0.34478736,219.8520,05/19.0/2023,2000,g 11.0,4.0
# From MPEC 2022-TD3
132P/Helin-Roman-Alu,e,5.3825,173.9956,216.4101,3.888744,0.1285257,0.56471544,70.9190,05/19.0/2023,2000,g 11.0,6.0
# From MPC 94676
133P/Elst-Pizarro,e,1.3898,160.1005,131.8976,3.165467,0.1750037,0.15632212,297.4871,05/19.0/2023,2000,g 15.4,2.0
# From MPC 89012
134P/Kowal-Vavrova,e,4.3342,202.0481,18.8142,6.265245,0.0628488,0.58500492,207.1106,05/19.0/2023,2000,g 11.5,4.0
# From MPEC 2022-OB6
135P/Shoemaker-Levy,e,6.0635,213.0240,22.3405,3.799808,0.1330643,0.29457713,54.1074,05/19.0/2023,2000,g  7.0,8.0
# From MPEC 2020-W26
136P/Mueller,e,9.4250,137.4280,225.1366,4.188376,0.1149835,0.29337634,291.6235,05/19.0/2023,2000,g 11.0,4.0
# From MPEC 2023-J29
137P/Shoemaker-Levy,e,4.8587,232.9418,141.1747,4.521712,0.1025061,0.57380754,165.6484,05/19.0/2023,2000,g 11.0,4.0
# From MPEC 2016-U66
138P/Shoemaker-Levy,e,10.0913,309.2701,95.6136,3.619969,0.1431024,0.53144781,211.1615,05/19.0/2023,2000,g 15.0,6.0
# From MPEC 2020-HN5
139P/Vaisala-Oterma,e,2.3373,242.1383,165.7939,4.517977,0.1026332,0.24804172,203.5253,05/19.0/2023,2000,g  9.5,4.0
# From MPEC 2015-E14
140P/Bowell-Skiff,e,3.8407,343.2375,172.6333,6.410467,0.0607253,0.69476473,172.8689,05/19.0/2023,2000,g 11.5,6.0
# From MPEC 2021-AJ0
141P/Machholz,e,13.9577,241.7869,153.6106,3.057712,0.1843356,0.73607156,162.8317,05/19.0/2023,2000,g 14.7,4.0
# From MPEC 2022-SU8
141P-I/Machholz,e,13.9570,241.7924,153.5861,3.048292,0.1851907,0.73527409,163.6703,05/19.0/2023,2000,g 17.5,4.0
# From MPEC 2021-Y10
142P/Ge-Wang,e,12.2512,175.9347,174.0357,5.000804,0.0881342,0.49699624,64.8934,05/19.0/2023,2000,g  8.5,6.0
# From MPEC 2023-J29
143P/Kowal-Mrkos,e,4.7452,244.7675,320.4208,4.267315,0.1118078,0.41532435,205.7008,05/19.0/2023,2000,g 13.5,2.0
# From MPC104795
144P/Kushida,e,3.9305,242.9407,216.3446,3.831286,0.1314278,0.63504430,326.9287,05/19.0/2023,2000,g  8.5,8.0
# From MPC108598
145P/Shoemaker-Levy,e,11.2800,26.7966,10.2854,4.135076,0.1172138,0.54247341,244.1121,05/19.0/2023,2000,g 13.5,4.0
# From MPC100284
146P/Shoemaker-LINEAR,e,23.1211,53.3758,317.0385,4.028493,0.1218962,0.64749272,305.8216,05/19.0/2023,2000,g 15.0,4.0
# From MPC 75720
147P/Kushida-Muramatsu,e,2.3103,91.6869,348.4659,4.020504,0.1222597,0.21435456,335.3444,05/19.0/2023,2000,g 14.0,4.0
# From MPEC 2023-HD1
148P/Anderson-LINEAR,e,3.6581,89.2044,8.0436,3.619276,0.1431434,0.55001878,48.5662,05/19.0/2023,2000,g 16.2,4.0
# From MPEC 2023-J29
149P/Mueller,e,34.2699,143.9184,30.4984,4.121905,0.1177761,0.32451243,205.7388,05/19.0/2023,2000,g  8.0,8.0
# From MPEC 2022-YN2
150P/LONEOS,e,18.5418,272.0673,246.0571,3.871826,0.1293690,0.54900117,321.3982,05/19.0/2023,2000,g 13.5,4.0
# From MPEC 2022-K19
151P/Helin,e,4.7270,143.1412,216.1348,5.763291,0.0712358,0.57368819,197.6004,05/19.0/2023,2000,g 10.0,6.0
# From MPEC 2022-UY9
152P/Helin-Lawrence,e,9.8784,91.8417,164.1097,4.478947,0.1039777,0.30862205,50.9143,05/19.0/2023,2000,g 11.5,4.0
# From MPC 46101
153P/Ikeya-Zhang,e,28.2182,93.5350,34.6061,50.35349,0.0027584,0.98981997,0.0000,03/03.2801/2002,2000,g  9.0,4.0
# From MPEC 2022-K19
154P/Brewington,e,17.6328,343.0227,47.9329,4.796843,0.0938147,0.67615792,323.4644,05/19.0/2023,2000,g  2.5,12.0
# From MPEC 2022-YN2
155P/Shoemaker,e,6.4033,97.1671,14.5355,6.572114,0.0584987,0.72683698,74.9179,05/19.0/2023,2000,g 10.0,4.8
# From MPEC 2023-J29
156P/Russell-LINEAR,e,17.2704,35.3424,0.4821,3.462261,0.1529904,0.61516203,139.4860,05/19.0/2023,2000,g 15.5,2.0
# From MPEC 2023-HD1
157P/Tritton,e,12.4199,287.5416,155.0789,3.545722,0.1476206,0.55668397,37.0773,05/19.0/2023,2000,g 15.0,4.0
# From MPEC 2022-VC5
157P-B/Tritton,e,12.4267,287.0843,153.9553,3.101509,0.1804449,0.49975703,45.6476,05/19.0/2023,2000,g 15.7,4.0
# From MPEC 2023-A50
158P/Kowal-LINEAR,e,7.3719,131.2705,199.1276,5.407319,0.0783847,0.10424610,38.8565,05/19.0/2023,2000,g  9.0,4.0
# From MPEC 2021-N06
159P/LONEOS,e,23.4852,54.9425,4.5942,5.852812,0.0696077,0.38263226,126.7729,05/19.0/2023,2000,g 10.0,4.0
# From MPEC 2022-K19
160P/LINEAR,e,15.6087,333.3597,12.7894,3.777167,0.1342625,0.52595910,169.6235,05/19.0/2023,2000,g 15.5,2.0
# From MPC 75721
161P/Hartley-IRAS,e,95.7987,1.5733,47.0446,7.715728,0.0459874,0.83557343,300.7182,05/19.0/2023,2000,g  8.5,6.0
# From MPEC 2023-K53
162P/SidingSpring,e,27.5651,30.8881,357.1943,3.092182,0.1812619,0.58316219,161.6544,05/19.0/2023,2000,g 12.0,4.0
# From MPEC 2021-S45
163P/NEAT,e,12.7176,102.0660,349.5580,3.764355,0.1349486,0.45274425,186.5419,05/19.0/2023,2000,g 14.5,4.0
# From MPEC 2021-F20
164P/Christensen,e,16.2717,88.2651,325.8844,3.653994,0.1411082,0.54104534,255.6631,05/19.0/2023,2000,g 11.0,4.0
# From MPC 75721
165P/LINEAR,e,15.8956,0.8506,125.7751,17.83358,0.0130872,0.61692346,109.9024,05/19.0/2023,2000,g 11.5,2.0
# From MPC 75722
